*******************************************************************************
JPL/HORIZONS                      1P/Halley                2025-Jun-16 07:35:55
Rec #:90000030        Soln.date: 2024-Apr-16_14:38:13   # obs: 8518 (1835-1994)
 
IAU76/J2000 helio. ecliptic osc. elements (au, days, deg., period=Julian yrs):
 
  EPOCH=  2439907.5 ! 1968-Feb-21.0000000 (TDB)    RMSW= n.a.
   EC= .9679221169240834   QR= .575157544193894    TP= 2446469.6983372075
   OM= 59.07198712310091   W= 112.2128395742619    IN= 162.1951462980701
   A= 17.93003431157555    MA= 274.8113481508292   ADIST= 35.28491107895721
   PER= 75.924140333742    N= .012981725           ANGMOM= .018301168
   DAN= 1.78505            DDN= .82865             L= 305.8576622
   B= 16.4442985           MOID= .0744805          TP= 1986-Feb-08.1983372075
 
Comet physical (GM= km^3/s^2; RAD= km):
   GM= n.a.                RAD= 5.5
   M1=  5.5      M2=  13.6     k1=  8.     k2=  5.      PHCOF=  .030
Comet non-gravitational force model (AMRAT=m^2/kg;A1-A3=au/d^2;DT=days;R0=au):
   AMRAT=  0.                                      DT=  0.
   A1= 4.887227714062E-10  A2= 1.554720848799E-10  A3= 0.
 Standard model:
   ALN=  .1112620426   NK=  4.6142   NM=  2.15     NN=  5.093    R0=  2.808
 
COMET comments 
1: soln ref.= JPL#74, data arc: 1835-08-21 to 1994-01-11
2: k1=8.0, k2=5.0, phase coef.=0.03;
*******************************************************************************


*******************************************************************************
Ephemeris / WWW_USER Mon Jun 16 07:35:55 2025 Pasadena, USA      / Horizons
*******************************************************************************
Target body name: 1P/Halley                       {source: JPL#74}
Center body name: Solar System Barycenter (0)     {source: DE441}
Center-site name: BODY CENTER
*******************************************************************************
Start time      : A.D. 1985-Jan-01 00:00:00.0000 TDB
Stop  time      : A.D. 1987-Mar-01 00:00:00.0000 TDB
Step-size       : 1440 minutes
*******************************************************************************
Center geodetic : 0.0, 0.0, 0.0                   {E-lon(deg),Lat(deg),Alt(km)}
Center cylindric: 0.0, 0.0, 0.0                   {E-lon(deg),Dxy(km),Dz(km)}
Center radii    : (undefined)
Keplerian GM    : 1.3289051882019876E+11 km^3/s^2
Small perturbers: Yes                             {source: SB441-N16}
Output units    : KM-S, deg, Julian Day Number (Tp)
Calendar mode   : Mixed Julian/Gregorian
Output type     : GEOMETRIC osculating elements
Output format   : 10
Reference frame : Ecliptic of J2000.0
*******************************************************************************
Initial IAU76/J2000 heliocentric ecliptic osculating elements (au, days, deg.):
  EPOCH=  2439907.5 ! 1968-Feb-21.0000000 (TDB)    RMSW= n.a.                  
   EC= .9679221169240834   QR= .575157544193894    TP= 2446469.6983372075      
   OM= 59.07198712310091   W= 112.2128395742619    IN= 162.1951462980701       
  Equivalent ICRF heliocentric cartesian coordinates (au, au/d):
   X=-1.326479811754316E+01  Y= 2.536681640257868E+01  Z= 2.638853433023532E+00
  VX= 1.424523564115578E-03 VY=-1.432724119466060E-03 VZ= 4.019525745942034E-05
Comet physical (GM= km^3/s^2; RAD= km):                                        
   GM= n.a.                RAD= 5.5                                            
   M1=  5.5      M2=  13.6     k1=  8.     k2=  5.      PHCOF=  .030           
Comet non-gravitational force model (AMRAT=m^2/kg;A1-A3=au/d^2;DT=days;R0=au): 
   AMRAT=  0.                                      DT=  0.                     
   A1= 4.887227714062E-10  A2= 1.554720848799E-10  A3= 0.                      
 Standard model:                                                               
   ALN=  .1112620426   NK=  4.6142   NM=  2.15     NN=  5.093    R0=  2.808    
*******************************************************************************
            JDTDB,            Calendar Date (TDB),                     EC,                     QR,                     IN,                     OM,                      W,                     Tp,                      N,                     MA,                     TA,                      A,                     AD,                     PR,
**************************************************************************************************************************************************************************************************************************************************************************************************************************************************
$$SOE
2446456.500000000, A.D. 1986-Jan-26 00:00:00.0000,  9.560830769679916E-01,  8.657799085082132E+07,  1.620719208731830E+02,  5.884403188333188E+01,  1.127148822570000E+02,  2.446471270460902E+06,  2.386196654957641E-07,  3.596954812612087E+02,  3.178215995348651E+02,  1.971403843291103E+09,  3.856229695731385E+09,  1.508676995469137E+09,
2446457.500000000, A.D. 1986-Jan-27 00:00:00.0000,  9.549777210114838E-01,  8.658510435909215E+07,  1.620707017865345E+02,  5.883202613886177E+01,  1.127031620521597E+02,  2.446471275339682E+06,  2.476544100788185E-07,  3.597052443590081E+02,  3.202492099856988E+02,  1.923161294904194E+09,  3.759737485449295E+09,  1.453638559819817E+09,
2446458.500000000, A.D. 1986-Jan-28 00:00:00.0000,  9.538295218804232E-01,  8.659413069088365E+07,  1.620696102837631E+02,  5.881949901322038E+01,  1.126859720591749E+02,  2.446471278542173E+06,  2.571482088773698E-07,  3.597160913943736E+02,  3.227557996195815E+02,  1.875530300262754E+09,  3.664466469834624E+09,  1.399970863385164E+09,
2446459.500000000, A.D. 1986-Jan-29 00:00:00.0000,  9.526464765076563E-01,  8.660492830824989E+07,  1.620686635195523E+02,  5.880646694086371E+01,  1.126627420543680E+02,  2.446471279804066E+06,  2.670448276172791E-07,  3.597282084315248E+02,  3.253410645511606E+02,  1.828901461202836E+09,  3.571197994097421E+09,  1.348088271216927E+09,
2446460.500000000, A.D. 1986-Jan-30 00:00:00.0000,  9.514386129712193E-01,  8.661728645622313E+07,  1.620678789416527E+02,  5.879295436896547E+01,  1.126329390701473E+02,  2.446471278868883E+06,  2.772677728193836E-07,  3.597417821114962E+02,  3.280040165552252E+02,  1.783665824966813E+09,  3.480714363477404E+09,  1.298383855935935E+09,
2446461.500000000, A.D. 1986-Jan-31 00:00:00.0000,  9.502180227149771E-01,  8.663092118279542E+07,  1.620672739297841E+02,  5.877899436211452E+01,  1.125960941412968E+02,  2.446471275499618E+06,  2.877189360544832E-07,  3.597569916754102E+02,  3.307428936075772E+02,  1.740206514634745E+09,  3.393782108086695E+09,  1.251221087276054E+09,
2446462.500000000, A.D. 1986-Feb-01 00:00:00.0000,  9.489987894575862E-01,  8.664547476583004E+07,  1.620668653687608E+02,  5.876462878353028E+01,  1.125518317230903E+02,  2.446471269491987E+06,  2.982782105283788E-07,  3.597739993402197E+02,  3.335550770478559E+02,  1.698890552681527E+09,  3.311135630597223E+09,  1.206926913508987E+09,
2446463.500000000, A.D. 1986-Feb-02 00:00:00.0000,  9.477967975087092E-01,  8.666051948040584E+07,  1.620666691834184E+02,  5.874990777600118E+01,  1.124999000773367E+02,  2.446471260688649E+06,  3.088043563053641E-07,  3.597929394224018E+02,  3.364370210591249E+02,  1.660061362995169E+09,  3.233462206509932E+09,  1.165786662815114E+09,
2446464.500000000, A.D. 1986-Feb-03 00:00:00.0000,  9.466294158016356E-01,  8.667556647471017E+07,  1.620666998922281E+02,  5.873488849520619E+01,  1.124402004506199E+02,  2.446471248993425E+06,  3.191372752774504E-07,  3.598139068958153E+02,  3.393842009342675E+02,  1.624032559819087E+09,  3.161389553163465E+09,  1.128041215765299E+09,
2446465.500000000, A.D. 1986-Feb-04 00:00:00.0000,  9.455150654250970E-01,  8.669008017751694E+07,  1.620669702300791E+02,  5.871963383953241E+01,  1.123728130552336E+02,  2.446471234384282E+06,  3.291017370427615E-07,  3.598369462804349E+02,  3.423910869044071E+02,  1.591083495903650E+09,  3.095476911629783E+09,  1.093886660200836E+09,
2446466.500000000, A.D. 1986-Feb-05 00:00:00.0000,  9.444726685531386E-01,  8.670349807296304E+07,  1.620674907934881E+02,  5.870421252009812E+01,  1.122980184066782E+02,  2.446471216923849E+06,  3.385126520886459E-07,  3.598620418020843E+02,  3.454511496446228E+02,  1.561456238103896E+09,  3.036208978134830E+09,  1.063475760148921E+09,
2446467.500000000, A.D. 1986-Feb-06 00:00:00.0000,  9.435209609533225E-01,  8.671525495010196E+07,  1.620682695792514E+02,  5.868870045330706E+01,  1.122163117684186E+02,  2.446471196766310E+06,  3.471820964146261E-07,  3.598891098269059E+02,  3.485569019220893E+02,  1.535352874513952E+09,  2.983990494077802E+09,  1.036919828867172E+09,
2446468.500000000, A.D. 1986-Feb-07 00:00:00.0000,  9.426776869943929E-01,  8.672481015348744E+07,  1.620693114226947E+02,  5.867318127212828E+01,  1.121284065624946E+02,  2.446471174159609E+06,  3.549279114677547E-07,  3.599179948323472E+02,  3.516999790851561E+02,  1.512932845975770E+09,  2.939140881798052E+09,  1.014290475244030E+09,
2446469.500000000, A.D. 1986-Feb-08 00:00:00.0000,  9.419587635806542E-01,  8.673167595073485E+07,  1.620706175289938E+02,  5.865774446267650E+01,  1.120352232788012E+02,  2.446471149441871E+06,  3.615830020692633E-07,  3.599484701636033E+02,  3.548712592441421E+02,  1.494311308672023E+09,  2.901890941393312E+09,  9.956220229927731E+08,
2446470.500000000, A.D. 1986-Feb-09 00:00:00.0000,  9.413775107520111E-01,  8.673544472700645E+07,  1.620721852377502E+02,  5.864248204937631E+01,  1.119378637126394E+02,  2.446471123031553E+06,  3.670042554155517E-07,  3.599802441880238E+02,  3.580610210384207E+02,  1.479559224448682E+09,  2.872383004170357E+09,  9.809150566725148E+08,
